[{"OBJECT_NAME":"CBERS 4","OBJECT_ID":"2014-079A","EPOCH":"2026-03-09T23:48:34.091136","MEAN_MOTION":14.35413289,"ECCENTRICITY":6.249e-5,"INCLINATION":98.3477,"RA_OF_ASC_NODE":128.9942,"ARG_OF_PERICENTER":63.727,"MEAN_ANOMALY":296.398,"EPHEMERIS_TYPE":0,"CLASSIFICATION_TYPE":"U","NORAD_CAT_ID":40336,"ELEMENT_SET_NO":999,"REV_AT_EPOCH":58972,"BSTAR":4.6050106e-5,"MEAN_MOTION_DOT":9.0e-7,"MEAN_MOTION_DDOT":0},{"OBJECT_NAME":"FENGYUN 1C DEB","OBJECT_ID":"1999-025ALE","EPOCH":"2026-03-09T06:31:42.151296","MEAN_MOTION":14.06046532,"ECCENTRICITY":0.02009348,"INCLINATION":98.7949,"RA_OF_ASC_NODE":82.6135,"ARG_OF_PERICENTER":235.5415,"MEAN_ANOMALY":262.8459,"EPHEMERIS_TYPE":0,"CLASSIFICATION_TYPE":"U","NORAD_CAT_ID":30564,"ELEMENT_SET_NO":999,"REV_AT_EPOCH":97511,"BSTAR":0.00078500992,"MEAN_MOTION_DOT":1.502e-5,"MEAN_MOTION_DDOT":0}]
